CCSDS_OMM_VERS = 2.0
CREATION_DATE  = 
ORIGINATOR     = 

OBJECT_NAME    = HULIANWANG DIGUI-151
OBJECT_ID      = 2026-013F
CENTER_NAME    = EARTH
REF_FRAME      = TEME
TIME_SYSTEM    = UTC
MEAN_ELEMENT_THEORY = SGP/SGP4

EPOCH          = 2026-02-11T23:28:14.625120
MEAN_MOTION    = 13.80808829
ECCENTRICITY   = .0001862
INCLINATION    = 50.0094
RA_OF_ASC_NODE = 90.6040
ARG_OF_PERICENTER = 151.8142
MEAN_ANOMALY   = 208.2853

EPHEMERIS_TYPE = 0
CLASSIFICATION_TYPE = U
NORAD_CAT_ID   = 67527
ELEMENT_SET_NO = 999
REV_AT_EPOCH   = 330
BSTAR          = .13022E-3
MEAN_MOTION_DOT = -.5E-7
MEAN_MOTION_DDOT = 0

CCSDS_OMM_VERS = 2.0
CREATION_DATE  = 
ORIGINATOR     = 

OBJECT_NAME    = HULIANWANG DIGUI-152
OBJECT_ID      = 2026-013G
CENTER_NAME    = EARTH
REF_FRAME      = TEME
TIME_SYSTEM    = UTC
MEAN_ELEMENT_THEORY = SGP/SGP4

EPOCH          = 2026-02-11T14:51:05.952960
MEAN_MOTION    = 13.79483691
ECCENTRICITY   = .00028304
INCLINATION    = 50.0109
RA_OF_ASC_NODE = 91.9981
ARG_OF_PERICENTER = 188.8949
MEAN_ANOMALY   = 171.1896

EPHEMERIS_TYPE = 0
CLASSIFICATION_TYPE = U
NORAD_CAT_ID   = 67528
ELEMENT_SET_NO = 999
REV_AT_EPOCH   = 325
BSTAR          = .11932038E-3
MEAN_MOTION_DOT = -.19E-6
MEAN_MOTION_DDOT = 0

CCSDS_OMM_VERS = 2.0
CREATION_DATE  = 
ORIGINATOR     = 

OBJECT_NAME    = HULIANWANG DIGUI-153
OBJECT_ID      = 2026-013H
CENTER_NAME    = EARTH
REF_FRAME      = TEME
TIME_SYSTEM    = UTC
MEAN_ELEMENT_THEORY = SGP/SGP4

EPOCH          = 2026-02-11T18:10:09.177888
MEAN_MOTION    = 13.79884248
ECCENTRICITY   = .00033467
INCLINATION    = 50.0096
RA_OF_ASC_NODE = 91.4036
ARG_OF_PERICENTER = 195.0894
MEAN_ANOMALY   = 164.9901

EPHEMERIS_TYPE = 0
CLASSIFICATION_TYPE = U
NORAD_CAT_ID   = 67529
ELEMENT_SET_NO = 999
REV_AT_EPOCH   = 326
BSTAR          = .15752893E-4
MEAN_MOTION_DOT = -.126E-5
MEAN_MOTION_DDOT = 0

CCSDS_OMM_VERS = 2.0
CREATION_DATE  = 
ORIGINATOR     = 

OBJECT_NAME    = HULIANWANG DIGUI-154
OBJECT_ID      = 2026-013J
CENTER_NAME    = EARTH
REF_FRAME      = TEME
TIME_SYSTEM    = UTC
MEAN_ELEMENT_THEORY = SGP/SGP4

EPOCH          = 2026-02-12T02:47:41.430336
MEAN_MOTION    = 13.79999181
ECCENTRICITY   = .00014514
INCLINATION    = 50.0078
RA_OF_ASC_NODE = 89.9969
ARG_OF_PERICENTER = 187.9713
MEAN_ANOMALY   = 172.1159

EPHEMERIS_TYPE = 0
CLASSIFICATION_TYPE = U
NORAD_CAT_ID   = 67530
ELEMENT_SET_NO = 999
REV_AT_EPOCH   = 331
BSTAR          = .17712028E-3
MEAN_MOTION_DOT = .43E-6
MEAN_MOTION_DDOT = 0

CCSDS_OMM_VERS = 2.0
CREATION_DATE  = 
ORIGINATOR     = 

OBJECT_NAME    = CZ-12 R/B
OBJECT_ID      = 2026-013K
CENTER_NAME    = EARTH
REF_FRAME      = TEME
TIME_SYSTEM    = UTC
MEAN_ELEMENT_THEORY = SGP/SGP4

EPOCH          = 2026-02-10T14:59:01.845024
MEAN_MOTION    = 14.14458023
ECCENTRICITY   = .00689071
INCLINATION    = 49.9940
RA_OF_ASC_NODE = 92.7401
ARG_OF_PERICENTER = 204.5348
MEAN_ANOMALY   = 155.2276

EPHEMERIS_TYPE = 0
CLASSIFICATION_TYPE = U
NORAD_CAT_ID   = 67531
ELEMENT_SET_NO = 999
REV_AT_EPOCH   = 315
BSTAR          = .52226018E-4
MEAN_MOTION_DOT = -.52E-6
MEAN_MOTION_DDOT = 0

CCSDS_OMM_VERS = 2.0
CREATION_DATE  = 
ORIGINATOR     = 

OBJECT_NAME    = STARLINK-36587
OBJECT_ID      = 2026-014A
CENTER_NAME    = EARTH
REF_FRAME      = TEME
TIME_SYSTEM    = UTC
MEAN_ELEMENT_THEORY = SGP/SGP4

EPOCH          = 2026-02-12T07:00:38.751552
MEAN_MOTION    = 15.80887355
ECCENTRICITY   = .00014545
INCLINATION    = 97.2840
RA_OF_ASC_NODE = 286.9470
ARG_OF_PERICENTER = 95.2612
MEAN_ANOMALY   = 264.8822

EPHEMERIS_TYPE = 0
CLASSIFICATION_TYPE = U
NORAD_CAT_ID   = 67532
ELEMENT_SET_NO = 999
REV_AT_EPOCH   = 457
BSTAR          = .11801249E-2
MEAN_MOTION_DOT = .232801E-2
MEAN_MOTION_DDOT = 0

CCSDS_OMM_VERS = 2.0
CREATION_DATE  = 
ORIGINATOR     = 

OBJECT_NAME    = STARLINK-36417
OBJECT_ID      = 2026-014B
CENTER_NAME    = EARTH
REF_FRAME      = TEME
TIME_SYSTEM    = UTC
MEAN_ELEMENT_THEORY = SGP/SGP4

EPOCH          = 2026-02-12T06:02:53.524032
MEAN_MOTION    = 15.75219728
ECCENTRICITY   = .00028887
INCLINATION    = 97.2838
RA_OF_ASC_NODE = 286.8482
ARG_OF_PERICENTER = 64.6801
MEAN_ANOMALY   = 295.4763

EPHEMERIS_TYPE = 0
CLASSIFICATION_TYPE = U
NORAD_CAT_ID   = 67533
ELEMENT_SET_NO = 999
REV_AT_EPOCH   = 456
BSTAR          = .1087497E-2
MEAN_MOTION_DOT = .16549E-2
MEAN_MOTION_DDOT = 0

CCSDS_OMM_VERS = 2.0
CREATION_DATE  = 
ORIGINATOR     = 

OBJECT_NAME    = STARLINK-36576
OBJECT_ID      = 2026-014C
CENTER_NAME    = EARTH
REF_FRAME      = TEME
TIME_SYSTEM    = UTC
MEAN_ELEMENT_THEORY = SGP/SGP4

EPOCH          = 2026-02-12T03:56:20.418144
MEAN_MOTION    = 15.80880582
ECCENTRICITY   = .00015485
INCLINATION    = 97.2846
RA_OF_ASC_NODE = 286.8160
ARG_OF_PERICENTER = 80.0181
MEAN_ANOMALY   = 280.1262

EPHEMERIS_TYPE = 0
CLASSIFICATION_TYPE = U
NORAD_CAT_ID   = 67534
ELEMENT_SET_NO = 999
REV_AT_EPOCH   = 455
BSTAR          = .11647007E-2
MEAN_MOTION_DOT = .229601E-2
MEAN_MOTION_DDOT = 0

CCSDS_OMM_VERS = 2.0
CREATION_DATE  = 
ORIGINATOR     = 

OBJECT_NAME    = STARLINK-36574
OBJECT_ID      = 2026-014D
CENTER_NAME    = EARTH
REF_FRAME      = TEME
TIME_SYSTEM    = UTC
MEAN_ELEMENT_THEORY = SGP/SGP4

EPOCH          = 2026-02-12T05:25:39.088704
MEAN_MOTION    = 15.80861129
ECCENTRICITY   = .00024473
INCLINATION    = 97.2850
RA_OF_ASC_NODE = 286.8837
ARG_OF_PERICENTER = 77.3659
MEAN_ANOMALY   = 282.7883

EPHEMERIS_TYPE = 0
CLASSIFICATION_TYPE = U
NORAD_CAT_ID   = 67535
ELEMENT_SET_NO = 999
REV_AT_EPOCH   = 456
BSTAR          = .93878841E-3
MEAN_MOTION_DOT = .183913E-2
MEAN_MOTION_DDOT = 0

CCSDS_OMM_VERS = 2.0
CREATION_DATE  = 
ORIGINATOR     = 

OBJECT_NAME    = STARLINK-36572
OBJECT_ID      = 2026-014E
CENTER_NAME    = EARTH
REF_FRAME      = TEME
TIME_SYSTEM    = UTC
MEAN_ELEMENT_THEORY = SGP/SGP4

EPOCH          = 2026-02-12T06:00:02.999808
MEAN_MOTION    = 15.75227633
ECCENTRICITY   = .00014924
INCLINATION    = 97.2849
RA_OF_ASC_NODE = 286.8794
ARG_OF_PERICENTER = 94.1392
MEAN_ANOMALY   = 332.8293

EPHEMERIS_TYPE = 0
CLASSIFICATION_TYPE = U
NORAD_CAT_ID   = 67536
ELEMENT_SET_NO = 999
REV_AT_EPOCH   = 460
BSTAR          = -.57580935E-3
MEAN_MOTION_DOT = -.85304E-3
MEAN_MOTION_DDOT = 0

CCSDS_OMM_VERS = 2.0
CREATION_DATE  = 
ORIGINATOR     = 

OBJECT_NAME    = STARLINK-36561
OBJECT_ID      = 2026-014F
CENTER_NAME    = EARTH
REF_FRAME      = TEME
TIME_SYSTEM    = UTC
MEAN_ELEMENT_THEORY = SGP/SGP4

EPOCH          = 2026-02-12T04:20:13.429536
MEAN_MOTION    = 15.75235610
ECCENTRICITY   = .00015366
INCLINATION    = 97.2849
RA_OF_ASC_NODE = 286.7898
ARG_OF_PERICENTER = 81.3087
MEAN_ANOMALY   = 278.8352

EPHEMERIS_TYPE = 0
CLASSIFICATION_TYPE = U
NORAD_CAT_ID   = 67537
ELEMENT_SET_NO = 999
REV_AT_EPOCH   = 455
BSTAR          = .13430906E-2
MEAN_MOTION_DOT = .205501E-2
MEAN_MOTION_DDOT = 0

CCSDS_OMM_VERS = 2.0
CREATION_DATE  = 
ORIGINATOR     = 

OBJECT_NAME    = STARLINK-36397
OBJECT_ID      = 2026-014G
CENTER_NAME    = EARTH
REF_FRAME      = TEME
TIME_SYSTEM    = UTC
MEAN_ELEMENT_THEORY = SGP/SGP4

EPOCH          = 2026-02-12T05:57:17.695872
MEAN_MOTION    = 15.75239861
ECCENTRICITY   = .00016268
INCLINATION    = 97.2848
RA_OF_ASC_NODE = 286.8516
ARG_OF_PERICENTER = 97.6594
MEAN_ANOMALY   = 262.4856

EPHEMERIS_TYPE = 0
CLASSIFICATION_TYPE = U
NORAD_CAT_ID   = 67538
ELEMENT_SET_NO = 999
REV_AT_EPOCH   = 456
BSTAR          = .13070013E-2
MEAN_MOTION_DOT = .19988E-2
MEAN_MOTION_DDOT = 0

