HULIANWANG DIGUI-151    
1 67527U 26013F   26042.97794705 -.00000005  00000+0  13022-3 0  9997
2 67527  50.0094  90.6040 0001862 151.8142 208.2853 13.80808829  3306
HULIANWANG DIGUI-152    
1 67528U 26013G   26042.61881890 -.00000019  00000+0  11932-3 0  9994
2 67528  50.0109  91.9981 0002830 188.8949 171.1896 13.79483691  3256
HULIANWANG DIGUI-153    
1 67529U 26013H   26042.75705067 -.00000126  00000+0  15753-4 0  9996
2 67529  50.0096  91.4036 0003346 195.0894 164.9901 13.79884248  3261
HULIANWANG DIGUI-154    
1 67530U 26013J   26043.11645174  .00000043  00000+0  17712-3 0  9994
2 67530  50.0078  89.9969 0001451 187.9713 172.1159 13.79999181  3310
CZ-12 R/B               
1 67531U 26013K   26041.62432691 -.00000052  00000+0  52226-4 0  9998
2 67531  49.9940  92.7401 0068907 204.5348 155.2276 14.14458023  3157
STARLINK-36587          
1 67532U 26014A   26043.29211518  .00232801  00000+0  11801-2 0  9998
2 67532  97.2840 286.9470 0001454  95.2612 264.8822 15.80887355  4578
STARLINK-36417          
1 67533U 26014B   26043.25200838  .00165490  00000+0  10875-2 0  9997
2 67533  97.2838 286.8482 0002888  64.6801 295.4763 15.75219728  4560
STARLINK-36576          
1 67534U 26014C   26043.16412521  .00229601  00000+0  11647-2 0  9995
2 67534  97.2846 286.8160 0001548  80.0181 280.1262 15.80880582  4550
STARLINK-36574          
1 67535U 26014D   26043.22614686  .00183913  00000+0  93879-3 0  9992
2 67535  97.2850 286.8837 0002447  77.3659 282.7883 15.80861129  4569
STARLINK-36572          
1 67536U 26014E   26043.25003472 -.00085304  00000+0 -57581-3 0  9998
2 67536  97.2849 286.8794 0001492  94.1392 332.8293 15.75227633  4607
STARLINK-36561          
1 67537U 26014F   26043.18071099  .00205501  00000+0  13431-2 0  9997
2 67537  97.2849 286.7898 0001536  81.3087 278.8352 15.75235610  4553
STARLINK-36397          
1 67538U 26014G   26043.24812148  .00199880  00000+0  13070-2 0  9994
2 67538  97.2848 286.8516 0001626  97.6594 262.4856 15.75239861  4565
